{
    "links": {
        "self": "http://www.neowsapp.com/rest/v1/neo/3549035?api_key=iIulBulltgU6a56xZRHN4H3l9WmuAYTsLGpBGhQ2"
    },
    "id": "3549035",
    "neo_reference_id": "3549035",
    "name": "(2010 TS55)",
    "designation": "2010 TS55",
    "nasa_jpl_url": "http://ssd.jpl.nasa.gov/sbdb.cgi?sstr=3549035",
    "absolute_magnitude_h": 24.3,
    "estimated_diameter": {
        "kilometers": {
            "estimated_diameter_min": 0.0366906138,
            "estimated_diameter_max": 0.0820427065
        },
        "meters": {
            "estimated_diameter_min": 36.6906137531,
            "estimated_diameter_max": 82.0427064882
        },
        "miles": {
            "estimated_diameter_min": 0.0227984834,
            "estimated_diameter_max": 0.0509789586
        },
        "feet": {
            "estimated_diameter_min": 120.3760332259,
            "estimated_diameter_max": 269.1689931548
        }
    },
    "is_potentially_hazardous_asteroid": false,
    "close_approach_data": [
        {
            "close_approach_date": "2010-09-28",
            "close_approach_date_full": "2010-Sep-28 14:13",
            "epoch_date_close_approach": 1285683180000,
            "relative_velocity": {
                "kilometers_per_second": "5.214361653",
                "kilometers_per_hour": "18771.7019508212",
                "miles_per_hour": "11664.0055816089"
            },
            "miss_distance": {
                "astronomical": "0.1479649514",
                "lunar": "57.5583660946",
                "kilometers": "22135241.564093518",
                "miles": "13754201.3171378284"
            },
            "orbiting_body": "Earth"
        }
    ],
    "orbital_data": {
        "orbit_id": "10",
        "orbit_determination_date": "2017-04-06 08:56:16",
        "first_observation_date": "2010-10-13",
        "last_observation_date": "2010-10-31",
        "data_arc_in_days": 18,
        "observations_used": 28,
        "orbit_uncertainty": "7",
        "minimum_orbit_intersection": ".146074",
        "jupiter_tisserand_invariant": "3.552",
        "epoch_osculation": "2459000.5",
        "eccentricity": ".4661033055832015",
        "semi_major_axis": "2.14911475964333",
        "inclination": "5.97997441617081",
        "ascending_node_longitude": "4.564262519802913",
        "orbital_period": "1150.76815992118",
        "perihelion_distance": "1.147405266095926",
        "perihelion_argument": "1.98437784357104",
        "aphelion_distance": "3.150824253190735",
        "perihelion_time": "2458923.122846216123",
        "mean_anomaly": "24.20624443076661",
        "mean_motion": ".3128345157070193",
        "equinox": "J2000",
        "orbit_class": {
            "orbit_class_type": "AMO",
            "orbit_class_description": "Near-Earth asteroid orbits similar to that of 1221 Amor",
            "orbit_class_range": "1.017 AU < q (perihelion) < 1.3 AU"
        }
    },
    "is_sentry_object": false
}